TIANYAN 01              
1 44881U 19093C   24094.85171633  .00001239  00000+0  15704-3 0  9994
2 44881  97.8312 173.0751 0014025 200.8329 159.2315 14.83436298232020
RS-44 & BREEZE-KM R/B   
1 44909U 19096E   24094.52657870  .00000022  00000+0  48909-4 0  9997
2 44909  82.5225 154.3862 0216711 225.5316 132.7886 12.79728291199421
BY70-2                  
1 45857U 20042B   24094.83061915  .00046924  00000+0  26151-2 0  9990
2 45857  97.9093 184.5966 0005772 134.4173 225.7530 15.13418615203241
SALSAT                  
1 46495U 20068K   24094.44902257  .00005194  00000+0  30803-3 0  9991
2 46495  97.8084  51.9761 0013430 201.5148 158.5519 15.11747533193012
RADFXSAT-2 (AO-109)     
1 47311U 21002C   24094.73222523  .00351109  54541-4  11629-2 0  9999
2 47311  60.6642 351.9721 0015206 101.0429 259.2401 15.89841574179609
UVSQ-SAT                
1 47438U 21006AB  24094.43351364  .00030848  00000+0  77849-3 0  9993
2 47438  97.3372 154.3424 0008432 126.3952 233.8072 15.39753871177208
LEDSAT                  
1 49069U 21073D   24094.76213725  .00011296  00000+0  49840-3 0  9999
2 49069  97.4432 166.5397 0020954 182.5243 177.5890 15.21734461145125
XW-3 (CAS-9)            
1 50466U 21131B   24094.82451540  .00000712  00000+0  24272-3 0  9996
2 50466  98.5279 180.2544 0003887   5.4790 354.6440 14.39462639119305
TEVEL-3                 
1 50988U 22002E   24094.84831011  .00054728  00000+0  10242-2 0  9997
2 50988  97.3878 168.0940 0004681 251.9893 108.0847 15.48520453123481
TEVEL-8                 
1 50989U 22002F   24094.81855619  .00054766  00000+0  10294-2 0  9994
2 50989  97.3897 168.1510 0004671 250.5699 109.5047 15.48394501123475
TEVEL-5                 
1 50998U 22002Q   24094.85409265  .00063782  00000+0  10828-2 0  9991
2 50998  97.3863 169.0823 0005364 244.4268 115.6430 15.51253065123555
TEVEL-6                 
1 50999U 22002R   24094.85634738  .00063749  00000+0  10855-2 0  9990
2 50999  97.3860 169.0639 0005318 244.7024 115.3677 15.51168455123558
TEVEL-1                 
1 51013U 22002AF  24094.80704775  .00055679  00000+0  10466-2 0  9993
2 51013  97.3871 167.9313 0004576 252.5648 107.5103 15.48389619123479
TEVEL-7                 
1 51062U 22002CG  24094.81104615  .00055824  00000+0  10455-2 0  9995
2 51062  97.3892 168.1164 0004740 251.8876 108.1858 15.48493510123471
TEVEL-4                 
1 51063U 22002CH  24094.83849840  .00053739  00000+0  10157-2 0  9996
2 51063  97.3890 168.0712 0004658 251.7928 108.2815 15.48239989123475
TEVEL-2                 
1 51069U 22002CP  24094.84737035  .00054576  00000+0  10201-2 0  9995
2 51069  97.3876 168.0603 0004690 251.2254 108.8488 15.48556603123485
GREENCUBE               
1 53106U 22080B   24092.39201857 -.00000003  00000+0  00000+0 0  9991
2 53106  70.1401 219.1945 0008103 122.4070 237.7374  6.42557363 40333
KUZBASS-300 (RS34S)     
1 53375U 22096F   24094.74948102  .00154433  00000+0  11261-2 0  9998
2 53375  97.3880  12.7882 0005745 116.2524 243.9330 15.72802465 92780
UTMN (RS23S)            
1 53376U 22096G   24094.70721922  .00193089  00000+0  11237-2 0  9997
2 53376  97.3865  13.5635 0005607 121.5269 238.6546 15.77905452 92832
MIET-AIS (RS28S)        
1 53377U 22096H   24094.85265984  .00088938  00000+0  86025-3 0  9999
2 53377  97.3923  12.1007 0004510 110.7147 249.4597 15.66132305 92746
KAI-1 (RS26S)           
1 53378U 22096J   24094.86333211  .00049003  00000+0  70039-3 0  9998
2 53378  97.3982  10.3647 0002965 112.6960 247.4609 15.56093094 92627
ISOI (RS19S)            
1 53381U 22096M   24094.84002420  .00103734  00000+0  92639-3 0  9997
2 53381  97.3941  12.8704 0005333 102.2894 257.8965 15.68063376 92791
CUBESX-HSE-2 (RS21S)    
1 53383U 22096P   24094.76251856  .00184571  00000+0  11159-2 0  9994
2 53383  97.3864  13.8216 0006618 105.8756 254.3240 15.77056501 92856
SIREN (RS30S)           
1 53384U 22096Q   24094.83220334  .00069112  00000+0  79145-3 0  9993
2 53384  97.3952  11.7025 0005290  92.6536 267.5328 15.61889431 92711
CAS-5A (FO-118)         
1 54684U 22167C   24094.86147196  .00019270  00000+0  76561-3 0  9992
2 54684  97.5946 238.2480 0010508  47.7536 312.4591 15.25311819 72956
STRATOSAT-TK 1 (RS52S)  
1 57167U 23091B   24094.85339802  .00008976  00000+0  55982-3 0  9999
2 57167  97.6212 148.2476 0015770  19.7026 340.4808 15.09654479 42331
UMKA 1 (RS40S)          
1 57172U 23091G   24094.83257334  .00005091  00000+0  34861-3 0  9990
2 57172  97.6210 147.6599 0017266  19.6187 340.5701 15.06404713 42292
CUBESX-HSE 3 (RS42S)    
1 57178U 23091N   24094.84412488  .00005804  00000+0  38722-3 0  9992
2 57178  97.6245 147.9331 0017634  14.2670 345.9052 15.07306323 42309
MONITOR-4 (RS57S)       
1 57182U 23091S   24094.87786333  .00005676  00000+0  38222-3 0  9995
2 57182  97.6244 147.8460 0018073  15.7858 344.3929 15.06964256 42307
MONITOR-2 (RS39S)       
1 57184U 23091U   24094.80550336  .00003935  00000+0  26866-3 0  9999
2 57184  97.6250 147.9597 0014420  11.5608 348.5948 15.06686715 42305
SVYATOBOR 1 (RS60S)     
1 57187U 23091X   24094.82745745  .00005878  00000+0  38735-3 0  9990
2 57187  97.6247 148.2420 0013755   7.7455 352.3983 15.07809860 42323
VIZARD-METEO (RS38S)    
1 57189U 23091Z   24094.84287221  .00006530  00000+0  41797-3 0  9992
2 57189  97.6235 148.5018 0012531   5.9876 354.1500 15.08851926 42344
NANOZOND 1 (RS49S)      
1 57190U 23091AA  24094.81746040  .00009259  00000+0  56308-3 0  9995
2 57190  97.6217 148.7476 0010987  12.5310 347.6191 15.10621496 42361
POLYTECH-UNIVERSE 3 (R*)
1 57191U 23091AB  24094.87233232  .00004074  00000+0  27824-3 0  9997
2 57191  97.6216 147.7525 0020388  26.2661 333.9596 15.06572680 42308
UTMN 2 (RS27S)          
1 57203U 23091AP  24094.81309918  .00006083  00000+0  39332-3 0  9999
2 57203  97.6243 148.3857 0012944   7.1820 352.9592 15.08502493 42338
ARCCUBE 1 (RS25S)       
1 57205U 23091AR  24094.83897574  .00010465  00000+0  62381-3 0  9992
2 57205  97.6185 148.8014 0011129  12.8921 347.2592 15.11310272 42371
KUZGTU 1 (RS47S)        
1 57217U 23091AV  24094.84700812  .00005257  00000+0  35202-3 0  9999
2 57217  97.6221 147.8394 0017614  15.7321 344.4451 15.07214408 42301
HADES-D (SO-121)        
1 58567U 23174CY  24094.48706836  .00029968  00000+0  13163-2 0  9998
2 58567  97.4603 170.4255 0014604 135.2323 225.0094 15.21775663 22391
CUTE-1 (CO-55)          
1 27844U 03031E   24094.49883168  .00000525  00000+0  25179-3 0  9996
2 27844  98.6801 102.5677 0009821   8.9932 351.1420 14.23147265 77160
CUBESAT XI-IV (CO-57)   
1 27848U 03031J   24094.47436839  .00000449  00000+0  22029-3 0  9993
2 27848  98.6831 102.8292 0010068  24.4373 335.7280 14.22605316 76919
CUBESAT XI-V            
1 28895U 05043F   24094.85101228  .00002180  00000+0  39553-3 0  9998
2 28895  98.1886 230.6495 0015220 229.1892 130.7993 14.67187093983789
CUTE-1.7+APD II (CO-65) 
1 32785U 08021C   24094.58246914  .00005505  00000+0  50034-3 0  9993
2 32785  97.7475  60.6294 0010334 204.5641 155.5089 14.95602626864323
AAUSAT-II               
1 32788U 08021F   24094.43616485  .00015873  00000+0  88896-3 0  9990
2 32788  97.5914  74.6992 0008748  80.7472 279.4748 15.13475819867003
SEEDS II (CO-66)        
1 32791U 08021J   24094.90025068  .00007052  00000+0  54299-3 0  9997
2 32791  97.6866  66.6239 0006372 158.6554 201.4937 15.01952595865445
SWISSCUBE               
1 35932U 09051B   24094.61260726  .00001320  00000+0  29325-3 0  9995
2 35932  98.4820 336.4147 0007081 178.8108 181.3109 14.58731690771688
BEESAT-1                
1 35933U 09051C   24094.60477780  .00001154  00000+0  25888-3 0  9990
2 35933  98.4747 337.4103 0005155 188.9461 171.1647 14.58510180771834
ITUPSAT1                
1 35935U 09051E   24094.42930859  .00001096  00000+0  25188-3 0  9991
2 35935  98.4846 337.0542 0007265 200.0960 159.9953 14.57490847771372
TISAT 1                 
1 36799U 10035E   24094.24999826  .00005896  00000+0  46891-3 0  9999
2 36799  98.0983 340.5181 0008469 114.5622 245.6484 15.00804848745819
M-CUBED & EXP-1 PRIME   
1 37855U 11061F   24094.35593313  .00101308  00000+0  12941-2 0  9999
2 37855 101.6861 232.2649 0068043 215.7031 143.9648 15.56098545681313
AEROCUBE 4.5A           
1 38767U 12048K   24094.53977437  .00008060  00000+0  47806-3 0  9991
2 38767  64.6615 193.6797 0105059  44.9805 315.9763 15.07417574249205
AEROCUBE 4.5B           
1 38768U 12048L   24094.49047869  .00017798  00000+0  75456-3 0  9994
2 38768  64.6559 124.3428 0089938  33.1636 327.5081 15.19576192250056
STRAND-1                
1 39090U 13009E   24094.51381314  .00000527  00000+0  19607-3 0  9998
2 39090  98.3833 284.8547 0009978 113.1251 247.0988 14.35960124581548
BRITE-AUSTRIA           
1 39091U 13009F   24094.47676440  .00000323  00000+0  12626-3 0  9999
2 39091  98.3872 284.0834 0011390 119.8279 240.4041 14.35729962581547
NEE-01 PEGASO           
1 39151U 13018B   24094.77809181  .00002873  00000+0  34283-3 0  9994
2 39151  98.0252 211.2460 0014132 282.4920  77.4713 14.85007999590938
ESTCUBE 1               
1 39161U 13021C   24094.71021307  .00002085  00000+0  31076-3 0  9991
2 39161  97.8344 163.4523 0010418 109.8506 250.3828 14.75866067586146
POPACS 1                
1 39268U 13055D   24094.64522313  .00023732  00000+0  44454-3 0  9997
2 39268  80.9827 236.3660 0430268 331.3640  26.4528 14.86301302549444
POPACS 2                
1 39269U 13055E   24094.89834653  .00015746  00000+0  37282-3 0  9995
2 39269  81.0042 319.8768 0563191 189.0623 170.0075 14.53745425546018
POPACS 3                
1 39270U 13055F   24094.78159823  .00012068  00000+0  33756-3 0  9990
2 39270  81.0132   8.2947 0634770 325.0839  31.0199 14.35150575542982
